[
    {
        "CCSDS_OMM_VERS": "3.0",
        "COMMENT": "GENERATED VIA SPACE-TRACK.ORG API",
        "CREATION_DATE": "2025-04-14T06:36:32",
        "ORIGINATOR": "18 SPCS",
        "OBJECT_NAME": "GALILEO 11 (268)",
        "OBJECT_ID": "2015-079B",
        "CENTER_NAME": "EARTH",
        "REF_FRAME": "TEME",
        "TIME_SYSTEM": "UTC",
        "MEAN_ELEMENT_THEORY": "SGP4",
        "EPOCH": "2025-04-13T21:06:07.517952",
        "MEAN_MOTION": "1.70474402",
        "ECCENTRICITY": "0.00048330",
        "INCLINATION": "55.5726",
        "RA_OF_ASC_NODE": "113.0460",
        "ARG_OF_PERICENTER": "315.6838",
        "MEAN_ANOMALY": "44.3114",
        "EPHEMERIS_TYPE": "0",
        "CLASSIFICATION_TYPE": "U",
        "NORAD_CAT_ID": "41175",
        "ELEMENT_SET_NO": "999",
        "REV_AT_EPOCH": "5803",
        "BSTAR": "0.00000000000000",
        "MEAN_MOTION_DOT": "0.00000055",
        "MEAN_MOTION_DDOT": "0.0000000000000",
        "SEMIMAJOR_AXIS": "29600.274",
        "PERIOD": "844.702",
        "APOAPSIS": "23236.444",
        "PERIAPSIS": "23207.833",
        "OBJECT_TYPE": "PAYLOAD",
        "RCS_SIZE": "LARGE",
        "COUNTRY_CODE": "ESA",
        "LAUNCH_DATE": "2015-12-17",
        "SITE": "FRGUI",
        "DECAY_DATE": null,
        "FILE": "4701332",
        "GP_ID": "285554040",
        "TLE_LINE0": "0 GALILEO 11 (268)",
        "TLE_LINE1": "1 41175U 15079B   25103.87925368  .00000055  00000-0  00000+0 0  9998",
        "TLE_LINE2": "2 41175  55.5726 113.0460 0004833 315.6838  44.3114  1.70474402 58039"
    }
]